IRIDIUM 119             
1 42959U 17061E   25083.60813109  .00000282  00000+0  93535-4 0  9990
2 42959  86.4012 213.0749 0002170  87.9071 272.2373 14.34219149390376
IRIDIUM 107             
1 42960U 17061F   25084.74345353  .00000980  00000+0  34291-3 0  9997
2 42960  86.4014 212.6197 0001844  80.5857 279.5547 14.34221713390542
IRIDIUM 132             
1 42961U 17061G   25084.74978557  .00001872  00000+0  66139-3 0  9993
2 42961  86.4011 212.5996 0002067  92.6672 267.4760 14.34210948390544
IRIDIUM 136             
1 42962U 17061H   25084.64197613  .00000897  00000+0  31315-3 0  9993
2 42962  86.4017 212.6492 0002209  85.9415 274.2033 14.34215492390549
IRIDIUM 139             
1 42963U 17061J   25084.64831557  .00000869  00000+0  30333-3 0  9994
2 42963  86.4017 212.7012 0001914  89.5977 270.5438 14.34216035390557
IRIDIUM 125             
1 42964U 17061K   25084.63563500  .00000064  00000+0  15699-4 0  9990
2 42964  86.4010 212.7591 0002404  81.0454 279.1014 14.34216235390563
IRIDIUM 135             
1 43070U 17083A   25084.88883441  .00000616  00000+0  21275-3 0  9998
2 43070  86.4005 149.4316 0002330 101.0113 259.1345 14.34216756379896
IRIDIUM 138             
1 43071U 17083B   25084.91420606  .00000653  00000+0  22624-3 0  9993
2 43071  86.3993 149.1030 0002843  90.1721 269.9801 14.34216541379881
